STARLINK-35269          
1 65593U 25207B   25283.21343877  .00081332  00000+0  14787-2 0  9994
2 65593  97.6023 346.5337 0001723  76.2708 283.8734 15.49245931  5363
STARLINK-35191          
1 65594U 25207C   25282.91667823 -.01564376  00000+0 -37165-1 0  9992
2 65594  97.6023 346.2215 0001930  65.9684  72.2593 15.44764136  5231
STARLINK-35261          
1 65595U 25207D   25283.14815982  .00061559  00000+0  11231-2 0  9999
2 65595  97.6021 346.4660 0001647  85.0340 275.1098 15.49229906  5367
STARLINK-35253          
1 65596U 25207E   25282.91667823  .00028431  00000+0  73068-3 0  9992
2 65596  97.6025 346.2063 0002075  79.3523  27.8746 15.39250036  5181
STARLINK-35263          
1 65597U 25207F   25283.14761639 -.00266629  00000+0 -52027-2 0  9995
2 65597  97.6022 346.4666 0001679  82.3442 277.7999 15.48435340  5362
STARLINK-35248          
1 65598U 25207G   25283.14714366  .00097319  00000+0  17677-2 0  9999
2 65598  97.6024 346.4676 0001774 106.0372 254.1074 15.49208206  5361
STARLINK-35245          
1 65599U 25207H   25283.14678087  .00064888  00000+0  11832-2 0  9991
2 65599  97.6024 346.4681 0001713  94.7679 265.3767 15.49230799  5369
STARLINK-35229          
1 65600U 25207J   25282.91667824  .00012005  00000+0  30970-3 0  9994
2 65600  97.6030 346.1945 0001647  92.6488 350.5156 15.39328702  5405
STARLINK-35234          
1 65601U 25207K   25282.91667823 -.02758219  00000+0 -75040-1 0  9997
2 65601  97.6024 346.2170 0001816  61.6289  66.0136 15.41665277  5404
STARLINK-35255          
1 65602U 25207L   25283.14574542  .00067651  00000+0  12322-2 0  9993
2 65602  97.6024 346.4703 0001687 100.3542 259.7898 15.49251042  5368
STARLINK-35250          
1 65603U 25207M   25283.14505583  .00068706  00000+0  12511-2 0  9995
2 65603  97.6022 346.4710 0001514  87.2706 272.8717 15.49254380  5363
STARLINK-35251          
1 65604U 25207N   25282.91667824 -.01592173  00000+0 -37022-1 0  9993
2 65604  97.6024 346.2300 0001764  63.9075  94.3830 15.45447761  5407
STARLINK-35171          
1 65605U 25207P   25283.14471501  .00079688  00000+0  14509-2 0  9999
2 65605  97.6024 346.4709 0001668  83.4563 276.6878 15.49211519  5204
STARLINK-35195          
1 65606U 25207Q   25283.14436798  .00090582  00000+0  16449-2 0  9990
2 65606  97.6022 346.4714 0001532  95.7602 264.3824 15.49244062  5360
STARLINK-35156          
1 65607U 25207R   25283.14401717  .00058009  00000+0  10596-2 0  9999
2 65607  97.6024 346.4718 0001556  86.7037 273.4391 15.49210325  5360
STARLINK-35185          
1 65608U 25207S   25283.14367738  .00066688  00000+0  12148-2 0  9991
2 65608  97.6024 346.4732 0001633  86.4676 273.6761 15.49251831  5369
STARLINK-35053          
1 65609U 25207T   25283.14333250  .00066397  00000+0  12096-2 0  9993
2 65609  97.6026 346.4732 0001519  95.6530 264.4894 15.49251799  5207
STARLINK-35178          
1 65610U 25207U   25282.91667823 -.01551865  00000+0 -39271-1 0  9990
2 65610  97.6021 346.2328 0001988  63.8457  94.9310 15.42878240  5408
STARLINK-35186          
1 65611U 25207V   25283.14195627  .00032454  00000+0  59540-3 0  9993
2 65611  97.6028 346.4752 0001423  93.1807 266.9606 15.49217729  5368
STARLINK-35154          
1 65612U 25207W   25283.14264603  .00064708  00000+0  11800-2 0  9998
2 65612  97.6025 346.4737 0001582  96.0735 264.0696 15.49228869  5205
STARLINK-35162          
1 65613U 25207X   25283.20687402  .00077366  00000+0  14054-2 0  9990
2 65613  97.6025 346.5426 0001588 111.2709 248.8711 15.49287503  5375
STARLINK-35206          
1 65614U 25207Y   25282.91667823  .00032631  00000+0  83675-3 0  9995
2 65614  97.6029 346.2204 0001443  73.8500  65.3614 15.39290230  5298
STARLINK-35174          
1 65615U 25207Z   25282.91667823  .00031151  00000+0  79713-3 0  9990
2 65615  97.6034 346.1989 0001493  98.3777 356.6654 15.39364607  5400
STARLINK-35247          
1 65622U 25210A   25282.91667823  .00079661  00000+0  19846-2 0  9990
2 65622  53.1598 290.3253 0001801  90.9010 352.3914 15.39560527  4674
STARLINK-35239          
1 65623U 25210B   25283.27921615  .00080117  00000+0  14318-2 0  9990
2 65623  53.1593 288.4847 0001241  87.9247 272.1904 15.49348547  4667
STARLINK-35151          
1 65624U 25210C   25283.27784136  .00063110  00000+0  11314-2 0  9993
2 65624  53.1591 288.4753 0001319  98.4784 261.6374 15.49365453  4581
STARLINK-35153          
1 65625U 25210D   25283.27715628  .00095521  00000+0  17019-2 0  9993
2 65625  53.1593 288.4706 0001291  87.8302 272.2855 15.49353354  4588
STARLINK-35225          
1 65626U 25210E   25282.91667823 -.02042951  00000+0 -43938-1 0  9998
2 65626  53.1595 290.2161 0001171  86.5175  51.0188 15.47505036  4674
STARLINK-35217          
1 65627U 25210F   25283.27853116  .00039747  00000+0  71827-3 0  9996
2 65627  53.1591 288.4798 0001197  95.1648 264.9498 15.49340521  4661
STARLINK-35128          
1 65628U 25210G   25282.91667823  .00078392  00000+0  19537-2 0  9993
2 65628  53.1603 290.2689 0001210  96.3623  14.5319 15.39557098  4678
