OBJECT_NAME,OBJECT_ID,EPOCH,MEAN_MOTION,ECCENTRICITY,INCLINATION,RA_OF_ASC_NODE,ARG_OF_PERICENTER,MEAN_ANOMALY,EPHEMERIS_TYPE,CLASSIFICATION_TYPE,NORAD_CAT_ID,ELEMENT_SET_NO,REV_AT_EPOCH,BSTAR,MEAN_MOTION_DOT,MEAN_MOTION_DDOT
STARLINK-35269,2025-207B,2025-10-10T05:07:21.109728,15.49245931,.00017238,97.6023,346.5337,76.2708,283.8734,0,U,65593,999,536,.14787041E-2,.81332E-3,0
STARLINK-35191,2025-207C,2025-10-09T22:00:00.999072,15.44764136,.000193,97.6023,346.2215,65.9684,72.2593,0,U,65594,999,523,-.37165E-1,-.1564376E-1,0
STARLINK-35261,2025-207D,2025-10-10T03:33:21.008448,15.49229906,.00016477,97.6021,346.4660,85.0340,275.1098,0,U,65595,999,536,.11230835E-2,.61559E-3,0
STARLINK-35253,2025-207E,2025-10-09T22:00:00.999072,15.39250036,.0002075,97.6025,346.2063,79.3523,27.8746,0,U,65596,999,518,.73068E-3,.28431E-3,0
STARLINK-35263,2025-207F,2025-10-10T03:32:34.056096,15.48435340,.00016799,97.6022,346.4666,82.3442,277.7999,0,U,65597,999,536,-.52027004E-2,-.266629E-2,0
STARLINK-35248,2025-207G,2025-10-10T03:31:53.212224,15.49208206,.00017745,97.6024,346.4676,106.0372,254.1074,0,U,65598,999,536,.17677402E-2,.97319E-3,0
STARLINK-35245,2025-207H,2025-10-10T03:31:21.867168,15.49230799,.00017137,97.6024,346.4681,94.7679,265.3767,0,U,65599,999,536,.11831793E-2,.64888E-3,0
STARLINK-35229,2025-207J,2025-10-09T22:00:00.999936,15.39328702,.00016472,97.6030,346.1945,92.6488,350.5156,0,U,65600,999,540,.30969703E-3,.12005E-3,0
STARLINK-35234,2025-207K,2025-10-09T22:00:00.999072,15.41665277,.0001816,97.6024,346.2170,61.6289,66.0136,0,U,65601,999,540,-.7504E-1,-.2758219E-1,0
STARLINK-35255,2025-207L,2025-10-10T03:29:52.404288,15.49251042,.00016874,97.6024,346.4703,100.3542,259.7898,0,U,65602,999,536,.1232185E-2,.67651E-3,0
STARLINK-35250,2025-207M,2025-10-10T03:28:52.823712,15.49254380,.00015142,97.6022,346.4710,87.2706,272.8717,0,U,65603,999,536,.12510704E-2,.68706E-3,0
STARLINK-35251,2025-207N,2025-10-09T22:00:00.999936,15.45447761,.00017648,97.6024,346.2300,63.9075,94.3830,0,U,65604,999,540,-.37022487E-1,-.1592173E-1,0
STARLINK-35171,2025-207P,2025-10-10T03:28:23.376864,15.49211519,.00016688,97.6024,346.4709,83.4563,276.6878,0,U,65605,999,520,.14508964E-2,.79688E-3,0
STARLINK-35195,2025-207Q,2025-10-10T03:27:53.393472,15.49244062,.00015321,97.6022,346.4714,95.7602,264.3824,0,U,65606,999,536,.16448529E-2,.90582E-3,0
STARLINK-35156,2025-207R,2025-10-10T03:27:23.083488,15.49210325,.00015565,97.6024,346.4718,86.7037,273.4391,0,U,65607,999,536,.10596251E-2,.58009E-3,0
STARLINK-35185,2025-207S,2025-10-10T03:26:53.725632,15.49251831,.00016336,97.6024,346.4732,86.4676,273.6761,0,U,65608,999,536,.12147959E-2,.66688E-3,0
STARLINK-35053,2025-207T,2025-10-10T03:26:23.928000,15.49251799,.00015191,97.6026,346.4732,95.6530,264.4894,0,U,65609,999,520,.12095606E-2,.66397E-3,0
STARLINK-35178,2025-207U,2025-10-09T22:00:00.999072,15.42878240,.0001988,97.6021,346.2328,63.8457,94.9310,0,U,65610,999,540,-.39271E-1,-.1551865E-1,0
STARLINK-35186,2025-207V,2025-10-10T03:24:25.021728,15.49217729,.00014231,97.6028,346.4752,93.1807,266.9606,0,U,65611,999,536,.59539533E-3,.32454E-3,0
STARLINK-35154,2025-207W,2025-10-10T03:25:24.616992,15.49228869,.00015828,97.6025,346.4737,96.0735,264.0696,0,U,65612,999,520,.11800214E-2,.64708E-3,0
STARLINK-35162,2025-207X,2025-10-10T04:57:53.915328,15.49287503,.00015884,97.6025,346.5426,111.2709,248.8711,0,U,65613,999,537,.14053597E-2,.77366E-3,0
STARLINK-35206,2025-207Y,2025-10-09T22:00:00.999072,15.39290230,.0001443,97.6029,346.2204,73.8500,65.3614,0,U,65614,999,529,.83675E-3,.32631E-3,0
STARLINK-35174,2025-207Z,2025-10-09T22:00:00.999072,15.39364607,.0001493,97.6034,346.1989,98.3777,356.6654,0,U,65615,999,540,.79713E-3,.31151E-3,0
STARLINK-35247,2025-210A,2025-10-09T22:00:00.999072,15.39560527,.0001801,53.1598,290.3253,90.9010,352.3914,0,U,65622,999,467,.19846E-2,.79661E-3,0
STARLINK-35239,2025-210B,2025-10-10T06:42:04.275360,15.49348547,.00012418,53.1593,288.4847,87.9247,272.1904,0,U,65623,999,466,.14318296E-2,.80117E-3,0
STARLINK-35151,2025-210C,2025-10-10T06:40:05.493504,15.49365453,.00013196,53.1591,288.4753,98.4784,261.6374,0,U,65624,999,458,.11313736E-2,.6311E-3,0
STARLINK-35153,2025-210D,2025-10-10T06:39:06.302592,15.49353354,.00012911,53.1593,288.4706,87.8302,272.2855,0,U,65625,999,458,.1701946E-2,.95521E-3,0
STARLINK-35225,2025-210E,2025-10-09T22:00:00.999072,15.47505036,.0001171,53.1595,290.2161,86.5175,51.0188,0,U,65626,999,467,-.43938E-1,-.2042951E-1,0
STARLINK-35217,2025-210F,2025-10-10T06:41:05.092224,15.49340521,.00011973,53.1591,288.4798,95.1648,264.9498,0,U,65627,999,466,.71826723E-3,.39747E-3,0
STARLINK-35128,2025-210G,2025-10-09T22:00:00.999072,15.39557098,.000121,53.1603,290.2689,96.3623,14.5319,0,U,65628,999,467,.19537E-2,.78392E-3,0
